
STARLINK-5368           
1 54840U 22177W   24323.93193685  .00001046  00000+0  92487-4 0  9992
2 54840  43.0027 198.0645 0001274 267.4592  92.6104 15.02537542105395
STARLINK-4659           
1 54841U 22177X   24323.94414832  .00000470  00000+0  49829-4 0  9996
2 54841  43.0038 198.1588 0001183 264.6389  95.4318 15.02538392105399
STARLINK-5387           
1 54842U 22177Y   24323.92525887  .00002767  00000+0  21970-3 0  9995
2 54842  43.0015 198.0127 0001357 277.3502  82.7186 15.02554513105399
STARLINK-5304           
1 54843U 22177Z   24322.94032373 -.00000222  00000+0 -13309-5 0  9995
2 54843  43.0017 203.5241 0001217 270.1419  89.9283 15.02532982104262
STARLINK-5388           
1 54844U 22177AA  24323.92083580  .00000479  00000+0  50533-4 0  9992
2 54844  43.0064 197.9630 0001009 269.9569  90.1158 15.02536576105397
STARLINK-5082           
1 54845U 22177AB  24323.92860997  .00001777  00000+0  14659-3 0  9998
2 54845  43.0006 198.0412 0001159 275.8095  84.2615 15.02536887105397
STARLINK-5360           
1 54846U 22177AC  24323.92194981  .00000413  00000+0  45622-4 0  9993
2 54846  43.0019 197.9909 0001027 268.4007  91.6718 15.02536238105392
STARLINK-5061           
1 54847U 22177AD  24323.88262189  .00000303  00000+0  37522-4 0  9993
2 54847  43.0021 172.5435 0001266 268.6255  91.4443 15.02539152105684
STARLINK-5432           
1 54848U 22177AE  24323.92232640  .00000499  00000+0  51976-4 0  9993
2 54848  43.0028 185.8438 0001254 270.4567  89.6132 15.02534972105539
STARLINK-5434           
1 54849U 22177AF  24323.91861950  .00000823  00000+0  75969-4 0  9994
2 54849  43.0031 197.9592 0001086 269.5000  90.5718 15.02535877105393
STARLINK-5087           
1 54850U 22177AG  24323.91789497 -.00000802  00000+0 -44342-4 0  9991
2 54850  43.0044 185.8094 0000966 273.9877  86.0855 15.02528782105534
STARLINK-5084           
1 54851U 22177AH  24323.92121180  .00000246  00000+0  33301-4 0  9995
2 54851  43.0037 185.8323 0001252 266.1166  93.9533 15.02538877105532
STARLINK-5418           
1 54852U 22177AJ  24323.91122020  .00000527  00000+0  54045-4 0  9999
2 54852  43.0044 185.7601 0001355 272.0653  88.0034 15.02541463105536
STARLINK-5427           
1 54853U 22177AK  24323.91455444 -.00000047  00000+0  11562-4 0  9994
2 54853  43.0044 185.7855 0001222 267.5237  92.5466 15.02536595105537
STARLINK-5419           
1 54854U 22177AL  24323.90566943  .00001210  00000+0  10462-3 0  9990
2 54854  43.0039 185.7177 0001126 272.4630  87.6083 15.02538860105531
STARLINK-5416           
1 54855U 22177AM  24323.90789603  .00001186  00000+0  10284-3 0  9995
2 54855  43.0038 185.7333 0001127 271.8941  88.1772 15.02539113105537
STARLINK-5086           
1 54856U 22177AN  24323.88791599  .00000448  00000+0  48238-4 0  9991
2 54856  43.0030 185.5833 0001256 266.6895  93.3804 15.02536051105538
STARLINK-5078           
1 54857U 22177AP  24322.37002755 -.00000597  00000+0 -29132-4 0  9993
2 54857  43.0024 193.9782 0001179 275.8493  84.2215 15.02534328105303
STARLINK-5407           
1 54858U 22177AQ  24323.90123572 -.00000106  00000+0  72184-5 0  9996
2 54858  43.0026 185.6828 0001197 269.0404  91.0301 15.02537677105539
STARLINK-5409           
1 54859U 22177AR  24323.89124737  .00001462  00000+0  12327-3 0  9995
2 54859  43.0012 185.6095 0001122 267.5883  92.4831 15.02538675105535
STARLINK-5406           
1 54860U 22177AS  24323.88569466  .00000311  00000+0  38117-4 0  9996
2 54860  43.0032 185.5676 0001195 268.0316  92.0389 15.02537122105530
STARLINK-5400           
1 54861U 22177AT  24323.90235941 -.00000939  00000+0 -54478-4 0  9994
2 54861  43.0015 185.6912 0001401 270.7826  89.2856 15.02526775105531
STARLINK-5403           
1 54862U 22177AU  24323.92565578  .00000320  00000+0  38746-4 0  9991
2 54862  43.0025 185.8820 0001252 271.0748  88.9951 15.02539199105530
STARLINK-5405           
1 54863U 22177AV  24323.89458085 -.00000535  00000+0 -24517-4 0  9993
2 54863  43.0018 185.6308 0001192 266.7449  93.3257 15.02531434105537
STARLINK-5359           
1 54864U 22177AW  24323.35058548 -.00005057  00000+0 -35962-3 0  9994
2 54864  43.0021 188.4324 0000145 272.0827  87.9999 15.02529458105454
STARLINK-5411           
1 54865U 22177AX  24323.89790379  .00000609  00000+0  60166-4 0  9990
2 54865  43.0044 185.6619 0001003 279.6147  80.4582 15.02536261105533
STARLINK-5398           
1 54866U 22177AY  24323.34055470 -.00000256  00000+0 -38668-5 0  9990
2 54866  43.0034 188.3581 0001346 262.5550  97.5139 15.02538091105451
STARLINK-5396           
1 54867U 22177AZ  24323.88458417  .00000747  00000+0  70382-4 0  9999
2 54867  43.0030 185.5594 0001066 278.0469  82.0252 15.02536659105533
STARLINK-5379           
1 54868U 22177BA  24323.93441926  .00003369  00000+0  26421-3 0  9990
2 54868  43.0008 185.0711 0001586 258.3717 101.6947 15.02555716105544
STARLINK-5402           
1 54869U 22177BB  24323.74497179  .00000848  00000+0  77849-4 0  9991
2 54869  43.0026 186.2322 0001284 265.8270  94.2425 15.02536860105512
STARLINK-5401           
1 54870U 22177BC  24323.93663468  .00000410  00000+0  45413-4 0  9997
2 54870  43.0022 185.0886 0001080 266.5209  93.5510 15.02536578105542
STARLINK-5397           
1 54871U 22177BD  24322.94835201 -.00000106  00000+0  72346-5 0  9993
2 54871  43.0034 190.5762 0001264 262.4735  97.5964 15.02535915105397
STARLINK-5390           
1 54872U 22177BE  24323.92886786  .00000084  00000+0  21311-4 0  9996
2 54872  43.0036 185.0558 0001362 268.1461  91.9225 15.02538489105544
STARLINK-5091           
1 54873U 22177BF  24323.93108385  .00000339  00000+0  40156-4 0  9991
2 54873  43.0028 185.0454 0001266 272.8303  87.2394 15.02539474105541
SHIYAN 10-02 (SY-10 02) 
1 54878U 22178A   24323.42188935  .00000828  00000+0  00000+0 0  9992
2 54878  63.8646  29.9356 7129704 269.1428  16.1533  2.00594947  5007
EROS C3                 
1 54880U 22179A   24323.86889138  .00007077  00000+0  31011-3 0  9990
2 54880 139.3436 312.9622 0009814 267.7770  92.1917 15.19825085105222
STAR VIBE               
1 55009U 23001A   24323.90691688  .00011979  00000+0  48264-3 0  9999
2 55009  97.4027  19.4884 0008536  20.4704 339.6874 15.24964939104044
MENUT                   
1 55010U 23001B   24323.90894862  .00008900  00000+0  36556-3 0  9991
2 55010  97.4094  20.0711 0008786  22.3964 337.7655 15.24396840104050
BRO-8                   
1 55011U 23001C   24323.92668310  .00007706  00000+0  33018-3 0  9994
2 55011  97.4095  19.7139 0009919  22.7438 337.4236 15.23002481104023
CONNECTA T1.2           
1 55012U 23001D   24323.44088146  .00010284  00000+0  38288-3 0  9994
2 55012  97.4108  21.2277 0009452  13.9549 346.1950 15.27629462104070
BIRKELAND               
1 55015U 23001G   24323.93081002  .00010615  00000+0  40478-3 0  9997
2 55015  97.4121  22.0444 0008503  11.5893 348.5540 15.26833392104175
KSF3-C                  
1 55018U 23001K   24323.87918104  .00104951  00000+0  13600-2 0  9998
2 55018  97.3941  28.5584 0004473 326.9591  33.1385 15.58510461104643
KSF3-B                  
1 55019U 23001L   24323.90982030  .00022886  00000+0  63772-3 0  9994
2 55019  97.4078  25.6189 0007163 356.7462   3.3734 15.36767278104421
FLOCK 4Y-24             
1 55020U 23001M   24323.74630911  .00028432  00000+0  72906-3 0  9998
2 55020  97.4022  25.9604 0006896 345.4280  14.6766 15.39295342104456
FLOCK 4Y-32             
1 55021U 23001N   24323.75228709  .00029402  00000+0  73034-3 0  9999
2 55021  97.3994  26.1609 0007647 339.5734  20.5205 15.40254369104477
FLOCK 4Y-22             
1 55022U 23001P   24323.92949594  .00031241  00000+0  79675-3 0  9992
2 55022  97.3998  26.1394 0007058 333.7595  26.3292 15.39441752104483
FLOCK 4Y-18             
1 55023U 23001Q   24323.74919628  .00027351  00000+0  69858-3 0  9997
2 55023  97.4056  26.3822 0006886 339.7116  20.3855 15.39424430104462
FLOCK 4Y-14             
1 55024U 23001R   24323.15430877  .00030505  00000+0  77514-3 0  9990
2 55024  97.4016  25.5058 0006972 346.7832  13.3230 15.39558586104368
FLOCK 4Y-30             
1 55025U 23001S   24323.91118462  .00035724  00000+0  89644-3 0  9993
2 55025  97.4067  26.6747 0007600 342.9687  17.1303 15.39905045104490
FLOCK 4Y-25             
1 55027U 23001U   24323.90034261  .00032216  00000+0  81173-3 0  9990
2 55027  97.3969  26.0051 0007125 338.4912  21.6033 15.39804589104487
FLOCK 4Y-5              
1 55028U 23001V   24323.18674153  .00030376  00000+0  77465-3 0  9995
2 55028  97.4052  25.5643 0007929 339.6764  20.4165 15.39442294104375
FLOCK 4Y-10             
1 55029U 23001W   24323.76124723  .00027530  00000+0  70492-3 0  9994
2 55029  97.4027  26.2834 0007415 337.3041  22.7876 15.39342236104460
FLOCK 4Y-29             
1 55030U 23001X   24323.91122350  .00041741  00000+0  94304-3 0  9995
2 55030  97.4024  27.1699 0008187 335.9862  24.1003 15.43037899104559
FLOCK 4Y-17             
1 55031U 23001Y   24323.71627718  .00029342  00000+0  74951-3 0  9991
2 55031  97.4037  26.2669 0007090 341.9275  18.1717 15.39405266104454
FLOCK 4Y-7              
1 55032U 23001Z   24323.74409300  .00023655  00000+0  65572-3 0  9990
2 55032  97.4031  25.6492 0008199 335.7117  24.3740 15.36914735104439
FLOCK 4Y-28             
1 55033U 23001AA  24323.74119596  .00062775  00000+0  97741-3 0  9995
2 55033  97.3919  30.4767 0005020 312.6148  47.4681 15.53676085104770
LYNK TOWER 4            
1 55034U 23001AB  24323.91235906  .00008774  00000+0  38987-3 0  9995
2 55034  97.4060  18.8275 0010405   7.3944 352.7443 15.21716384103980
UMBRA-05                
1 55036U 23001AD  24323.71912850  .00030694  00000+0  14043-2 0  9997
2 55036  97.4056  16.6953 0006148 240.2639 119.7985 15.20451041103824
